H1 CPF 01  gfz 2022 02 23 01  5541 terrasarx 
H2 0702601  6201 31698    2022 02 23 00 59 42 2022 02 28 00 00 42   120 1 1  0 0 0
H9
10 0 59636  25902.000000  0   -3278176.857    206432.583  -6061848.721
10 0 59636  26022.000000  0   -3996700.746    534788.877  -5592165.295
10 0 59636  26142.000000  0   -4640078.378    865779.496  -5024715.533
10 0 59636  26262.000000  0   -5197075.791   1192229.520  -4369330.235
10 0 59636  26382.000000  0   -5658059.886   1506847.496  -3637396.611
10 0 59636  26502.000000  0   -6015174.998   1802383.029  -2841668.725
10 0 59636  26622.000000  0   -6262488.557   2071787.483  -1996050.991
10 0 59636  26742.000000  0   -6396101.898   2308375.198  -1115357.422
10 0 59636  26862.000000  0   -6414222.528   2505980.967   -215049.822
10 0 59636  26982.000000  0   -6317194.519   2659108.926    689039.922
10 0 59636  27102.000000  0   -6107485.061   2763069.628   1580996.292
10 0 59636  27222.000000  0   -5789628.201   2814101.917   2445109.426
10 0 59636  27342.000000  0   -5370126.451   2809475.226   3266160.314
10 0 59636  27462.000000  0   -4857314.192   2747570.213   4029696.493
10 0 59636  27582.000000  0   -4261184.402   2627935.213   4722291.035
10 0 59636  27702.000000  0   -3593186.072   2451318.392   5331779.311
10 0 59636  27822.000000  0   -2865997.089   2219675.167   5847471.452
10 0 59636  27942.000000  0   -2093275.926   1936150.474   6260336.823
10 0 59636  28062.000000  0   -1289398.803   1605035.872   6563156.595
10 0 59636  28182.000000  0    -469188.291   1231703.134   6750642.646
10 0 59636  28302.000000  0     352360.128    822515.643   6819523.374
10 0 59636  28422.000000  0    1160351.368    384719.419   6768597.106
10 0 59636  28542.000000  0    1940259.456    -73684.630   6598751.567
10 0 59636  28662.000000  0    2678187.548   -544086.098   6312950.225
10 0 59636  28782.000000  0    3361116.080  -1017425.962   5916184.778
10 0 59636  28902.000000  0    3977135.544  -1484369.692   5415393.411
10 0 59636  29022.000000  0    4515658.311  -1935490.990   4819344.804
10 0 59636  29142.000000  0    4967606.220  -2361461.538   4138490.889
10 0 59636  29262.000000  0    5325572.334  -2753244.280   3384788.682
10 0 59636  29382.000000  0    5583950.814  -3102285.557   2571490.940
10 0 59636  29502.000000  0    5739030.282  -3400700.914   1712911.413
10 0 59636  29622.000000  0    5789050.939  -3641451.449    824169.738
10 0 59636  29742.000000  0    5734222.205  -3818505.064    -79082.120
10 0 59636  29862.000000  0    5576700.873  -3926978.435   -980943.348
10 0 59636  29982.000000  0    5320529.265  -3963256.032  -1865554.121
10 0 59636  30102.000000  0    4971535.366  -3925082.371  -2717382.421
10 0 59636  30222.000000  0    4537198.106  -3811627.096  -3521502.270
10 0 59636  30342.000000  0    4026481.662  -3623520.408  -4263858.030
10 0 59636  30462.000000  0    3449643.478  -3362858.912  -4931508.773
10 0 59636  30582.000000  0    2818021.402  -3033181.554  -5512848.826
10 0 59636  30702.000000  0    2143805.811  -2639418.157  -5997800.040
10 0 59636  30822.000000  0    1439802.662  -2187813.040  -6377976.179
10 0 59636  30942.000000  0     719189.740  -1685822.656  -6646818.803
10 0 59636  31062.000000  0      -4728.587  -1141989.824  -6799699.475
10 0 59636  31182.000000  0    -718762.692   -565798.951  -6833989.978
10 0 59636  31302.000000  0   -1410072.004     32486.303  -6749102.054
10 0 59636  31422.000000  0   -2066390.831    642001.532  -6546495.909
10 0 59636  31542.000000  0   -2676240.850   1251473.663  -6229657.431
10 0 59636  31662.000000  0   -3229127.983   1849424.197  -5804044.929
10 0 59636  31782.000000  0   -3715722.496   2424381.006  -5277005.911
10 0 59636  31902.000000  0   -4128020.122   2965096.564  -4657662.127
10 0 59636  32022.000000  0   -4459479.283   3460767.757  -3956761.694
10 0 59636  32142.000000  0   -4705130.684   3901252.954  -3186502.213
10 0 59636  32262.000000  0   -4861658.878   4277282.650  -2360326.209
10 0 59636  32382.000000  0   -4927452.302   4580657.524  -1492690.141
10 0 59636  32502.000000  0   -4902620.768   4804430.140   -598811.875
10 0 59636  32622.000000  0   -4788978.508   4943064.925    305600.578
10 0 59636  32742.000000  0   -4589991.476   4992571.715   1204632.296
10 0 59636  32862.000000  0   -4310692.181   4950607.911   2082451.089
10 0 59636  32982.000000  0   -3957560.622   4816547.036   2923596.141
10 0 59636  33102.000000  0   -3538376.581   4591512.270   3713257.772
10 0 59636  33222.000000  0   -3062048.098   4278374.722   4437543.260
10 0 59636  33342.000000  0   -2538420.284   3881716.753   5083724.442
10 0 59636  33462.000000  0   -1978068.213   3407760.515   5640461.706
10 0 59636  33582.000000  0   -1392079.691   2864264.191   6098000.015
10 0 59636  33702.000000  0    -791832.790   2260388.587   6448334.290
10 0 59636  33822.000000  0    -188774.362   1606537.863   6685341.838
10 0 59636  33942.000000  0     405797.624    914177.823   6804884.253
10 0 59636  34062.000000  0     980945.455    195633.442   6804874.529
10 0 59636  34182.000000  0    1526291.630   -536129.582   6685311.188
10 0 59636  34302.000000  0    2032205.383  -1267738.227   6448279.176
10 0 59636  34422.000000  0    2489972.726  -1985655.619   6097916.019
10 0 59636  34542.000000  0    2891948.350  -2676431.768   5640345.163
10 0 59636  34662.000000  0    3231686.002  -3326957.042   5083574.267
10 0 59636  34782.000000  0    3504044.658  -3924714.014   4437361.131
10 0 59636  34902.000000  0    3705269.902  -4458023.085   3713047.879
10 0 59636  35022.000000  0    3833047.191  -4916276.796   2923364.172
10 0 59636  35142.000000  0    3886525.885  -5290157.008   2082203.567
10 0 59636  35262.000000  0    3866313.543  -5571829.845   1204375.992
10 0 59636  35382.000000  0    3774439.839  -5755112.836    305341.012
10 0 59636  35502.000000  0    3614291.566  -5835609.917   -599070.955
10 0 59636  35622.000000  0    3390520.420  -5810812.744  -1492946.697
10 0 59636  35742.000000  0    3108923.533  -5680162.100  -2360579.081
10 0 59636  35862.000000  0    2776303.156  -5445070.827  -3186749.744
10 0 59636  35982.000000  0    2400307.076  -5108906.354  -3957001.254
10 0 59636  36102.000000  0    1989254.341  -4676934.006  -4657890.831
10 0 59636  36222.000000  0    1551952.011  -4156224.025  -5277220.856
10 0 59636  36342.000000  0    1097508.481  -3555525.686  -5804243.672
10 0 59636  36462.000000  0     635145.749  -2885112.052  -6229838.327
10 0 59636  36582.000000  0     174014.505  -2156598.746  -6546657.332
10 0 59636  36702.000000  0    -276983.504  -1382739.827  -6749242.440
10 0 59636  36822.000000  0    -709362.600   -577204.938  -6834109.191
10 0 59636  36942.000000  0   -1115208.096    245658.917  -6799800.047
10 0 59636  37062.000000  0   -1487317.729   1071076.770  -6646905.691
10 0 59636  37182.000000  0   -1819326.458   1884104.259  -6378055.872
10 0 59636  37302.000000  0   -2105813.116   2669891.306  -5997879.252
10 0 59636  37422.000000  0   -2342389.066   3413949.176  -5512933.340
10 0 59636  37542.000000  0   -2525765.946   4102416.156  -4931602.149
10 0 59636  37662.000000  0   -2653802.629   4722318.222  -4263962.957
10 0 59636  37782.000000  0   -2725529.194   5261818.817  -3521620.806
10 0 59636  37902.000000  0   -2741146.550   5710450.964  -2717514.461
10 0 59636  38022.000000  0   -2702002.667   6059329.752  -1865697.800
10 0 59636  38142.000000  0   -2610544.951   6301339.099   -981095.078
10 0 59636  38262.000000  0   -2470249.129   6431284.164    -79237.377
10 0 59636  38382.000000  0   -2285527.955   6446010.896    824013.720
10 0 59636  38502.000000  0   -2061618.927   6344485.433   1712756.138
10 0 59636  38622.000000  0   -1804453.294   6127826.349   2571338.025
10 0 59636  38742.000000  0   -1520512.136   5799293.784   3384641.156
10 0 59636  38862.000000  0   -1216673.495   5364236.572   4138352.768
10 0 59636  38982.000000  0    -900054.348   4829998.590   4819221.868
10 0 59636  39102.000000  0    -577848.767   4205784.710   5415294.119
10 0 59636  39222.000000  0    -257168.555   3502492.987   5916118.072
10 0 59636  39342.000000  0      55109.168   2732516.224   6312925.081
10 0 59636  39462.000000  0     352485.971   1909516.421   6598776.423
10 0 59636  39582.000000  0     628974.637   1048178.357   6768678.929
10 0 59636  39702.000000  0     879217.609    163944.967   6819666.247
10 0 59636  39822.000000  0    1098589.360   -727258.451   6750847.152
10 0 59636  39942.000000  0    1283281.335  -1609310.514   6563421.313
10 0 59636  40062.000000  0    1430368.265  -2466184.823   6260659.964
10 0 59636  40182.000000  0    1537854.671  -3282241.950   5847852.886
10 0 59636  40302.000000  0    1604700.411  -4042517.456   5332220.606
10 0 59636  40422.000000  0    1630825.532  -4732999.077   4722792.971
10 0 59636  40542.000000  0    1617095.051  -5340890.288   4030257.950
10 0 59636  40662.000000  0    1565283.097  -5854857.408   3266778.800
10 0 59636  40782.000000  0    1478016.152  -6265249.978   2445780.203
10 0 59636  40902.000000  0    1358697.288  -6564290.207   1581711.387
10 0 59636  41022.000000  0    1211413.233  -6746229.375    689788.583
10 0 59636  41142.000000  0    1040826.154  -6807465.038   -214279.546
10 0 59636  41262.000000  0     852051.457  -6746616.183  -1114578.548
10 0 59636  41382.000000  0     650526.031  -6564550.013  -1995278.988
10 0 59636  41502.000000  0     441871.749  -6264362.854  -2840921.747
10 0 59636  41622.000000  0     231757.062  -5851318.739  -3636694.094
10 0 59636  41742.000000  0      25759.498  -5332745.783  -4368691.758
10 0 59636  41862.000000  0    -170767.521  -4717892.588  -5024160.058
10 0 59636  41982.000000  0    -352819.905  -4017751.255  -5591710.053
10 0 59636  42102.000000  0    -515857.582  -3244850.628  -6061508.019
10 0 59636  42222.000000  0    -655906.061  -2413024.701  -6425435.153
10 0 59636  42342.000000  0    -769643.543  -1537161.229  -6677216.398
99
